STARLINK-36698          
1 67709U 26025S   26061.74903585  .00641272  00000+0  30793-2 0  9995
2 67709  97.2860 173.0761 0002673  59.0223 301.1308 15.81027112  4858
STARLINK-36344          
1 67710U 26025T   26061.83335647 -.00016840  00000+0 -11222-3 0  9991
2 67710  97.2849 173.1481 0001684  75.2617   0.4900 15.75196126  4914
STARLINK-36687          
1 67711U 26025U   26061.75134403  .00610245  00000+0  29426-2 0  9991
2 67711  97.2858 173.0728 0002853  51.8254 308.3271 15.81015233  4865
STARLINK-36705          
1 67712U 26025V   26061.76459758  .00412638  00000+0  26242-2 0  9995
2 67712  97.2864 173.0526 0000290 349.4647  10.6612 15.75289619  4859
STARLINK-36708          
1 67713U 26025W   26061.80380288  .00191632  00000+0  97995-3 0  9994
2 67713  97.2871 173.1528 0001515 112.6509 247.4920 15.80802874  4862
STARLINK-36702          
1 67714U 26025X   26061.80578152  .00223113  00000+0  11337-2 0  9999
2 67714  97.2872 173.1501 0001576  93.7702 266.3747 15.80859796  4868
STARLINK-36718          
1 67715U 26025Y   26061.79962135  .00734805  00000+0  34768-2 0  9994
2 67715  97.2870 173.1589 0002702  26.2208 333.9197 15.81111215  4865
STARLINK-36715          
1 67716U 26025Z   26061.80167182  .00289201  00000+0  14608-2 0  9992
2 67716  97.2873 173.1561 0000920 134.9417 225.1926 15.80820132  4864
STARLINK-36385          
1 67717U 26025AA  26061.55471551  .00230579  00000+0  11679-2 0  9992
2 67717  97.2870 172.8801 0002486 106.3663 253.7879 15.80910300  4827
CZ-2F DEB               
1 67718U 26024E   26058.50732833  .00191604  00000+0  35886-2 0  9997
2 67718  50.3169  68.5830 0246509 240.0171 117.6115 15.20915897  3086
CZ-2F DEB               
1 67719U 26024F   26061.43224304  .00151812  00000+0  37051-2 0  9996
2 67719  49.7916  56.8116 0319080 242.3827 114.4383 15.01302068  3153
CZ-2F DEB               
1 67720U 26024G   26061.47361302  .00147795  00000+0  37058-2 0  9994
2 67720  49.8314  57.1110 0329738 238.7718 118.0527 14.98647187  3479
